IRIDIUM 63              
1 25286U 98021B   25355.47219385  .00000336  00000+0  10737-3 0  9994
2 25286  86.3979   3.5494 0002345  86.2172 273.9294 14.36742264450736
IRIDIUM 69              
1 25319U 98026A   25355.46308120  .00000347  00000+0  10140-3 0  9991
2 25319  86.3972  16.2501 0004447 109.5532 250.6148 14.41224251450030
IRIDIUM 71              
1 25320U 98026B   25355.51867722  .00000248  00000+0  70513-4 0  9998
2 25320  86.3971  10.8985 0002836 138.9820 221.1593 14.41322863450577
IRIDIUM 73              
1 25344U 98032C   25355.46214703  .00000523  00000+0  12444-3 0  9994
2 25344  86.4412 327.2815 0003013  86.6125 273.5425 14.52000599457737
IRIDIUM 82              
1 25467U 98051A   25355.50995157  .00037016  00000+0  67650-3 0  9991
2 25467  86.3597  16.6904 0058128 300.0548  59.4952 15.47307312452754
